[{"OBJECT_NAME":"TDRS 11","OBJECT_ID":"2013-004A","EPOCH":"2026-04-05T05:04:15.114720","MEAN_MOTION":1.0027362,"ECCENTRICITY":0.00044861,"INCLINATION":3.4143,"RA_OF_ASC_NODE":29.9561,"ARG_OF_PERICENTER":357.3405,"MEAN_ANOMALY":67.8569,"EPHEMERIS_TYPE":0,"CLASSIFICATION_TYPE":"U","NORAD_CAT_ID":39070,"ELEMENT_SET_NO":999,"REV_AT_EPOCH":4596,"BSTAR":0,"MEAN_MOTION_DOT":8.1e-7,"MEAN_MOTION_DDOT":0},{"OBJECT_NAME":"TDRS 12","OBJECT_ID":"2014-004A","EPOCH":"2026-04-05T06:21:27.163008","MEAN_MOTION":1.00277539,"ECCENTRICITY":0.0002643,"INCLINATION":3.9069,"RA_OF_ASC_NODE":17.8246,"ARG_OF_PERICENTER":258.1651,"MEAN_ANOMALY":331.9356,"EPHEMERIS_TYPE":0,"CLASSIFICATION_TYPE":"U","NORAD_CAT_ID":39504,"ELEMENT_SET_NO":999,"REV_AT_EPOCH":4354,"BSTAR":0,"MEAN_MOTION_DOT":-2.68e-6,"MEAN_MOTION_DDOT":0},{"OBJECT_NAME":"GPM-CORE","OBJECT_ID":"2014-009C","EPOCH":"2026-04-05T06:02:08.242656","MEAN_MOTION":15.44338608,"ECCENTRICITY":0.00129692,"INCLINATION":64.9731,"RA_OF_ASC_NODE":192.4914,"ARG_OF_PERICENTER":255.1445,"MEAN_ANOMALY":104.8259,"EPHEMERIS_TYPE":0,"CLASSIFICATION_TYPE":"U","NORAD_CAT_ID":39574,"ELEMENT_SET_NO":999,"REV_AT_EPOCH":68654,"BSTAR":0.00036471398,"MEAN_MOTION_DOT":0.00016747,"MEAN_MOTION_DDOT":0},{"OBJECT_NAME":"MMS 1","OBJECT_ID":"2015-011A","EPOCH":"2026-04-05T08:00:01.999872","MEAN_MOTION":0.28341977,"ECCENTRICITY":0.83834891,"INCLINATION":71.1408,"RA_OF_ASC_NODE":349.8048,"ARG_OF_PERICENTER":165.8513,"MEAN_ANOMALY":67.0423,"EPHEMERIS_TYPE":0,"CLASSIFICATION_TYPE":"U","NORAD_CAT_ID":40482,"ELEMENT_SET_NO":999,"REV_AT_EPOCH":130,"BSTAR":0,"MEAN_MOTION_DOT":-1.288e-5,"MEAN_MOTION_DDOT":0},{"OBJECT_NAME":"MMS 2","OBJECT_ID":"2015-011B","EPOCH":"2026-04-05T08:00:01.999872","MEAN_MOTION":0.28341994,"ECCENTRICITY":0.83842363,"INCLINATION":71.141,"RA_OF_ASC_NODE":349.807,"ARG_OF_PERICENTER":165.8573,"MEAN_ANOMALY":67.0272,"EPHEMERIS_TYPE":0,"CLASSIFICATION_TYPE":"U","NORAD_CAT_ID":40483,"ELEMENT_SET_NO":999,"REV_AT_EPOCH":130,"BSTAR":0,"MEAN_MOTION_DOT":-1.288e-5,"MEAN_MOTION_DDOT":0},{"OBJECT_NAME":"MMS 3","OBJECT_ID":"2015-011C","EPOCH":"2026-04-05T08:00:01.999872","MEAN_MOTION":0.2834195,"ECCENTRICITY":0.83834896,"INCLINATION":71.1436,"RA_OF_ASC_NODE":349.8116,"ARG_OF_PERICENTER":165.8516,"MEAN_ANOMALY":67.0319,"EPHEMERIS_TYPE":0,"CLASSIFICATION_TYPE":"U","NORAD_CAT_ID":40484,"ELEMENT_SET_NO":999,"REV_AT_EPOCH":130,"BSTAR":0,"MEAN_MOTION_DOT":-1.288e-5,"MEAN_MOTION_DDOT":0},{"OBJECT_NAME":"MMS 4","OBJECT_ID":"2015-011D","EPOCH":"2026-04-05T08:00:01.999872","MEAN_MOTION":0.28340799,"ECCENTRICITY":0.83830461,"INCLINATION":71.1413,"RA_OF_ASC_NODE":349.8068,"ARG_OF_PERICENTER":165.8603,"MEAN_ANOMALY":67.0135,"EPHEMERIS_TYPE":0,"CLASSIFICATION_TYPE":"U","NORAD_CAT_ID":40485,"ELEMENT_SET_NO":999,"REV_AT_EPOCH":130,"BSTAR":0,"MEAN_MOTION_DOT":-1.288e-5,"MEAN_MOTION_DDOT":0},{"OBJECT_NAME":"TDRS 13","OBJECT_ID":"2017-047A","EPOCH":"2026-04-05T05:50:40.405344","MEAN_MOTION":1.00272481,"ECCENTRICITY":0.00121563,"INCLINATION":3.4359,"RA_OF_ASC_NODE":0.8798,"ARG_OF_PERICENTER":97.1842,"MEAN_ANOMALY":171.6758,"EPHEMERIS_TYPE":0,"CLASSIFICATION_TYPE":"U","NORAD_CAT_ID":42915,"ELEMENT_SET_NO":999,"REV_AT_EPOCH":3161,"BSTAR":0,"MEAN_MOTION_DOT":-9.8e-7,"MEAN_MOTION_DDOT":0},{"OBJECT_NAME":"NOAA 20 (JPSS-1)","OBJECT_ID":"2017-073A","EPOCH":"2026-04-05T06:14:47.668416","MEAN_MOTION":14.19543353,"ECCENTRICITY":0.00020443,"INCLINATION":98.7725,"RA_OF_ASC_NODE":35.3884,"ARG_OF_PERICENTER":101.7994,"MEAN_ANOMALY":258.3412,"EPHEMERIS_TYPE":0,"CLASSIFICATION_TYPE":"U","NORAD_CAT_ID":43013,"ELEMENT_SET_NO":999,"REV_AT_EPOCH":43412,"BSTAR":7.3658953e-5,"MEAN_MOTION_DOT":1.11e-6,"MEAN_MOTION_DDOT":0}]
