TDRS 11                 
1 39070U 13004A   26095.21128605  .00000081  00000+0  00000+0 0  9991
2 39070   3.4143  29.9561 0004486 357.3405  67.8569  1.00273620 45963
TDRS 12                 
1 39504U 14004A   26095.26489772 -.00000268  00000+0  00000+0 0  9992
2 39504   3.9069  17.8246 0002643 258.1651 331.9356  1.00277539 43541
GPM-CORE                
1 39574U 14009C   26095.25148429  .00016747  00000+0  36471-3 0  9997
2 39574  64.9731 192.4914 0012969 255.1445 104.8259 15.44338608686543
MMS 1                   
1 40482U 15011A   26095.33335648 -.00001288  00000+0  00000+0 0  9991
2 40482  71.1408 349.8048 8383489 165.8513  67.0423  0.28341977  1306
MMS 2                   
1 40483U 15011B   26095.33335648 -.00001288  00000+0  00000+0 0  9992
2 40483  71.1410 349.8070 8384236 165.8573  67.0272  0.28341994  1303
MMS 3                   
1 40484U 15011C   26095.33335648 -.00001288  00000+0  00000+0 0  9993
2 40484  71.1436 349.8116 8383489 165.8516  67.0319  0.28341950  1303
MMS 4                   
1 40485U 15011D   26095.33335648 -.00001288  00000+0  00000+0 0  9994
2 40485  71.1413 349.8068 8383046 165.8603  67.0135  0.28340799  1307
TDRS 13                 
1 42915U 17047A   26095.24352321 -.00000098  00000+0  00000+0 0  9990
2 42915   3.4359   0.8798 0012156  97.1842 171.6758  1.00272481 31616
NOAA 20 (JPSS-1)        
1 43013U 17073A   26095.26027394  .00000111  00000+0  73659-4 0  9990
2 43013  98.7725  35.3884 0002044 101.7994 258.3412 14.19543353434120
